{
  "type": "FeatureCollection",
  "features": [
    {
      "type": "Feature",
      "geometry": {
        "type": "Point",
        "coordinates": [
          36.4388,
          -0.7224
        ]
      },
      "properties": {
        "id": 1,
        "title": "0.0430 ha Residential Land in Naivasha",
        "price": 490000.0,
        "size_ha": 4.0,
        "location": "Residential Land Naivasha",
        "source": "buyrentkenya"
      }
    },
    {
      "type": "Feature",
      "geometry": {
        "type": "Point",
        "coordinates": [
          36.4388,
          -0.7224
        ]
      },
      "properties": {
        "id": 2,
        "title": "3.5 Acres Nyamathi, Naivasha",
        "price": 12000000.0,
        "size_ha": 1.41645,
        "location": "Nyamathi Naivasha",
        "source": "jiji"
      }
    },
    {
      "type": "Feature",
      "geometry": {
        "type": "Point",
        "coordinates": [
          36.14,
          -0.37
        ]
      },
      "properties": {
        "id": 3,
        "title": "50 by 100 Acre Plot Kinungi",
        "price": 750000.0,
        "size_ha": 40.47,
        "location": "Plot Kinungi",
        "source": "jiji"
      }
    },
    {
      "type": "Feature",
      "geometry": {
        "type": "Point",
        "coordinates": [
          36.0712048,
          -0.2802724
        ]
      },
      "properties": {
        "id": 4,
        "title": "Prime Land Opposite Great North Rift ,3 Acres",
        "price": 60000000.0,
        "size_ha": 1.2141,
        "location": "Prime Land Opposite",
        "source": "jiji"
      }
    },
    {
      "type": "Feature",
      "geometry": {
        "type": "Point",
        "coordinates": [
          36.33,
          -0.5
        ]
      },
      "properties": {
        "id": 5,
        "title": "1 Acre of Land for Sale Gilgil",
        "price": 500000.0,
        "size_ha": 0.4047,
        "location": "Land Gilgil",
        "source": "jiji"
      }
    },
    {
      "type": "Feature",
      "geometry": {
        "type": "Point",
        "coordinates": [
          36.0712048,
          -0.2802724
        ]
      },
      "properties": {
        "id": 6,
        "title": "Prime 20 Acres.",
        "price": 75000000.0,
        "size_ha": 8.094,
        "location": "Prime",
        "source": "jiji"
      }
    },
    {
      "type": "Feature",
      "geometry": {
        "type": "Point",
        "coordinates": [
          36.09,
          -0.29
        ]
      },
      "properties": {
        "id": 7,
        "title": "0.7 Acre Plot for Sale in Nakuru Eveready",
        "price": 56000000.0,
        "size_ha": 0.28329,
        "location": "Plot Nakuru Eveready",
        "source": "jiji"
      }
    },
    {
      "type": "Feature",
      "geometry": {
        "type": "Point",
        "coordinates": [
          36.4388,
          -0.7224
        ]
      },
      "properties": {
        "id": 8,
        "title": "2 And) 1/2 Acre on Sale at Ihindu Naivasha Only 1km Frm Rd",
        "price": 4000000.0,
        "size_ha": 0.2023,
        "location": "Ihindu Naivasha Only",
        "source": "jiji"
      }
    },
    {
      "type": "Feature",
      "geometry": {
        "type": "Point",
        "coordinates": [
          36.08,
          -0.3
        ]
      },
      "properties": {
        "id": 9,
        "title": "Garden Estate 1/2 Acre, Residential Plot",
        "price": 45000000.0,
        "size_ha": 0.2023,
        "location": "Garden Estate Residential",
        "source": "jiji"
      }
    },
    {
      "type": "Feature",
      "geometry": {
        "type": "Point",
        "coordinates": [
          36.0712048,
          -0.2802724
        ]
      },
      "properties": {
        "id": 10,
        "title": "25 Acres Of Land \nMoi South Lake Rd, Naivasha East Nakuru\n 25 Acres Of Land / Land FOR Sale\n\n\n\nKSh 700,000,000\nPID : 8BLXJ",
        "price": 7000000008.0,
        "size_ha": 10.1175,
        "location": "Land Moi South",
        "source": "propertypro"
      }
    },
    {
      "type": "Feature",
      "geometry": {
        "type": "Point",
        "coordinates": [
          36.4388,
          -0.7224
        ]
      },
      "properties": {
        "id": 11,
        "title": "15 Acres Of Land \nKinangop Rd Naivasha East Nakuru\n 15 Acres Of Land / Land FOR Sale\n\n\n\nKSh 270,000,000\nPID : 4BEUM",
        "price": 2700000004.0,
        "size_ha": 6.0705,
        "location": "Land Kinangop Naivasha",
        "source": "propertypro"
      }
    },
    {
      "type": "Feature",
      "geometry": {
        "type": "Point",
        "coordinates": [
          36.0712048,
          -0.2802724
        ]
      },
      "properties": {
        "id": 12,
        "title": "Half An Acre Plot \nNjoro Nakuru\n Half An Acre Plot / Land FOR Sale\n\n\n\nKSh 1,800,000\nPID : 1BRLW",
        "price": 18000001.0,
        "size_ha": 0.2023,
        "location": "Half Acre Plot",
        "source": "propertypro"
      }
    },
    {
      "type": "Feature",
      "geometry": {
        "type": "Point",
        "coordinates": [
          36.0712,
          -0.2803
        ]
      },
      "properties": {
        "id": 13,
        "title": "20 Acres Land \nNakuru Town Nakuru\n 20 Acres Land / Land FOR Sale\n\n\n\nKSh 42,000,000\nPID : 9BRLR",
        "price": 420000009.0,
        "size_ha": 8.094,
        "location": "Land Nakuru Town",
        "source": "propertypro"
      }
    },
    {
      "type": "Feature",
      "geometry": {
        "type": "Point",
        "coordinates": [
          36.0707,
          -0.2875
        ]
      },
      "properties": {
        "id": 14,
        "title": "6.5 Acre Land \nNakuru East Nakuru\n 6.5 Acre Land / Land FOR Sale\n\n\n\nKSh 6,900,000\nPID : 8BRLR",
        "price": 69000008.0,
        "size_ha": 2.63055,
        "location": "Land Nakuru East",
        "source": "propertypro"
      }
    },
    {
      "type": "Feature",
      "geometry": {
        "type": "Point",
        "coordinates": [
          36.0707,
          -0.2875
        ]
      },
      "properties": {
        "id": 15,
        "title": "25 Acre Land \nNakuru East Nakuru\n 25 Acre Land / Land FOR Sale\n\n\n\nKSh 850,000\nPID : 6BRLR",
        "price": 8500006.0,
        "size_ha": 10.1175,
        "location": "Land Nakuru East",
        "source": "propertypro"
      }
    },
    {
      "type": "Feature",
      "geometry": {
        "type": "Point",
        "coordinates": [
          36.0707,
          -0.2875
        ]
      },
      "properties": {
        "id": 16,
        "title": "10 Acre Land \nNakuru East Nakuru\n 10 Acre Land / Land FOR Sale\n\n\n\nKSh 770,000\nPID : 5BRLR",
        "price": 7700005.0,
        "size_ha": 4.047,
        "location": "Land Nakuru East",
        "source": "propertypro"
      }
    },
    {
      "type": "Feature",
      "geometry": {
        "type": "Point",
        "coordinates": [
          36.0707,
          -0.2875
        ]
      },
      "properties": {
        "id": 17,
        "title": "127 Acre Land \nNakuru East Nakuru\n 127 Acre Land / Land FOR Sale\n\n\n\nKSh 2,000,000\nPID : 4BRLR",
        "price": 20000004.0,
        "size_ha": 51.3969,
        "location": "Land Nakuru East",
        "source": "propertypro"
      }
    },
    {
      "type": "Feature",
      "geometry": {
        "type": "Point",
        "coordinates": [
          36.0707,
          -0.2875
        ]
      },
      "properties": {
        "id": 18,
        "title": "70 Acres Land \nNakuru East Nakuru\n 70 Acres Land / Land FOR Sale\n\n\n\nKSh 1,500,000\nPID : 3BRLR",
        "price": 15000003.0,
        "size_ha": 28.329,
        "location": "Land Nakuru East",
        "source": "propertypro"
      }
    },
    {
      "type": "Feature",
      "geometry": {
        "type": "Point",
        "coordinates": [
          36.0707,
          -0.2875
        ]
      },
      "properties": {
        "id": 19,
        "title": "100 Acres Land \nNakuru East Nakuru\n 100 Acres Land / Land FOR Sale\n\n\n\nKSh 9,000,000\nPID : 1BRLR",
        "price": 90000001.0,
        "size_ha": 40.47,
        "location": "Land Nakuru East",
        "source": "propertypro"
      }
    },
    {
      "type": "Feature",
      "geometry": {
        "type": "Point",
        "coordinates": [
          35.7333,
          -0.25
        ]
      },
      "properties": {
        "id": 20,
        "title": "24 Acre Land \nMolo Nakuru\n 24 Acre Land / Land FOR Sale\n\n\n\nKSh 1,500,000\nPID : 5BRLQ",
        "price": 15000005.0,
        "size_ha": 9.7128,
        "location": "Land Molo Nakuru",
        "source": "propertypro"
      }
    },
    {
      "type": "Feature",
      "geometry": {
        "type": "Point",
        "coordinates": [
          36.0712,
          -0.2803
        ]
      },
      "properties": {
        "id": 21,
        "title": "50 X 100 Residential Plots \nNakuru Town Nakuru\n 50 X 100 Residential Plots / Land FOR Sale\n\n\n\nKSh 1,200,000\nPID : 6BRKW",
        "price": 12000006.0,
        "size_ha": 0.0506,
        "location": "Plots Nakuru Town",
        "source": "propertypro"
      }
    },
    {
      "type": "Feature",
      "geometry": {
        "type": "Point",
        "coordinates": [
          36.0712,
          -0.2803
        ]
      },
      "properties": {
        "id": 22,
        "title": "20 Acres Land \nNakuru Town Nakuru\n 20 Acres Land / Land FOR Sale\n\n\n\nKSh 42,000,000\nPID : 3BNPY",
        "price": 420000003.0,
        "size_ha": 8.094,
        "location": "Land Nakuru Town",
        "source": "propertypro"
      }
    },
    {
      "type": "Feature",
      "geometry": {
        "type": "Point",
        "coordinates": [
          36.4388,
          -0.7224
        ]
      },
      "properties": {
        "id": 23,
        "title": "1/4 Acre Plot \nNaivasha East Nakuru\n 1/4 Acre Plot / Land FOR Sale\n\n\n\nKSh 1,800,000\nPID : 8BMQT",
        "price": 18000008.0,
        "size_ha": 0.1012,
        "location": "Plot Naivasha East",
        "source": "propertypro"
      }
    },
    {
      "type": "Feature",
      "geometry": {
        "type": "Point",
        "coordinates": [
          36.07,
          -0.29
        ]
      },
      "properties": {
        "id": 24,
        "title": "Nakuru Grove Gardens Phase 2",
        "price": 450000.0,
        "size_ha": 0.0506,
        "location": "Nakuru Grove Gardens",
        "source": "usernameproperties"
      }
    },
    {
      "type": "Feature",
      "geometry": {
        "type": "Point",
        "coordinates": [
          36.065,
          -0.28
        ]
      },
      "properties": {
        "id": 27,
        "title": "Springfield-Nakuru",
        "price": 950000.0,
        "size_ha": 0.0506,
        "location": "Springfield Nakuru",
        "source": "usernameproperties"
      }
    },
    {
      "type": "Feature",
      "geometry": {
        "type": "Point",
        "coordinates": [
          36.07,
          -0.29
        ]
      },
      "properties": {
        "id": 26,
        "title": "Nakuru Grove Gardens",
        "price": 350000.0,
        "size_ha": 0.0506,
        "location": "Nakuru Grove Gardens",
        "source": "usernameproperties"
      }
    },
    {
      "type": "Feature",
      "geometry": {
        "type": "Point",
        "coordinates": [
          36.085,
          -0.285
        ]
      },
      "properties": {
        "id": 28,
        "title": "Nakuru Harmony Gardens",
        "price": 650000.0,
        "size_ha": 0.0506,
        "location": "Nakuru Harmony Gardens",
        "source": "usernameproperties"
      }
    },
    {
      "type": "Feature",
      "geometry": {
        "type": "Point",
        "coordinates": [
          36.06,
          -0.27
        ]
      },
      "properties": {
        "id": 25,
        "title": "The Hamptons-Nakuru Phase II",
        "price": 750000.0,
        "size_ha": 0.0506,
        "location": "The Hamptons Nakuru",
        "source": "usernameproperties"
      }
    },
    {
      "type": "Feature",
      "geometry": {
        "type": "Point",
        "coordinates": [
          35.6946,
          -0.3457
        ]
      },
      "properties": {
        "id": 29,
        "title": "5 ACRES FARM LAND | NGATA, NAKURU",
        "price": 6500000.0,
        "size_ha": 2.0235,
        "location": "Farm Land Ngata",
        "source": "advancedvaluers"
      }
    },
    {
      "type": "Feature",
      "geometry": {
        "type": "Point",
        "coordinates": [
          35.7,
          -0.34
        ]
      },
      "properties": {
        "id": 30,
        "title": "1 ACRE PRIME LAND FOR SALE | MIMWAITA \u2013 SOBEA",
        "price": 6000000.0,
        "size_ha": 0.4047,
        "location": "Prime Land Mimwaita",
        "source": "advancedvaluers"
      }
    },
    {
      "type": "Feature",
      "geometry": {
        "type": "Point",
        "coordinates": [
          36.072,
          -0.282
        ]
      },
      "properties": {
        "id": 31,
        "title": "Land for sale Nakuru Greenlands",
        "price": 499000.0,
        "size_ha": 0.0506,
        "location": "Land Nakuru Greenlands",
        "source": "amgrealtors"
      }
    },
    {
      "type": "Feature",
      "geometry": {
        "type": "Point",
        "coordinates": [
          36.068,
          -0.278
        ]
      },
      "properties": {
        "id": 32,
        "title": "Land for sale Nakuru Breeze",
        "price": 550000.0,
        "size_ha": 0.0506,
        "location": "Land Nakuru Breeze",
        "source": "amgrealtors"
      }
    },
    {
      "type": "Feature",
      "geometry": {
        "type": "Point",
        "coordinates": [
          36.0712048,
          -0.2802724
        ]
      },
      "properties": {
        "id": 33,
        "title": "Land for sale Nakuru Vantage Gardens",
        "price": 449000.0,
        "size_ha": 0.0506,
        "location": "Land Nakuru Vantage",
        "source": "amgrealtors"
      }
    },
    {
      "type": "Feature",
      "geometry": {
        "type": "Point",
        "coordinates": [
          36.0712,
          -0.2803
        ]
      },
      "properties": {
        "id": 34,
        "title": "10 Acres for Lease in Nakuru West",
        "price": 80000.0,
        "size_ha": 4.047,
        "location": "Nakuru Town Nakuru",
        "source": "pigiame"
      }
    },
    {
      "type": "Feature",
      "geometry": {
        "type": "Point",
        "coordinates": [
          36.0712048,
          -0.2802724
        ]
      },
      "properties": {
        "id": 35,
        "title": "Private Office Space for 2 Persons",
        "price": 38630.0,
        "size_ha": 0.1012,
        "location": "Pramukh Towers Floor",
        "source": "kenyapropertycentre"
      }
    },
    {
      "type": "Feature",
      "geometry": {
        "type": "Point",
        "coordinates": [
          36.0712048,
          -0.2802724
        ]
      },
      "properties": {
        "id": 36,
        "title": "Private Office Space for 3 Persons",
        "price": 74560.0,
        "size_ha": 0.1012,
        "location": "Regus Village Market",
        "source": "kenyapropertycentre"
      }
    },
    {
      "type": "Feature",
      "geometry": {
        "type": "Point",
        "coordinates": [
          36.0712048,
          -0.2802724
        ]
      },
      "properties": {
        "id": 37,
        "title": "4-Bedroom Villa + 2 DSQS",
        "price": 400000.0,
        "size_ha": 0.1012,
        "location": "Lavington Nairobi",
        "source": "kenyapropertycentre"
      }
    },
    {
      "type": "Feature",
      "geometry": {
        "type": "Point",
        "coordinates": [
          36.0712048,
          -0.2802724
        ]
      },
      "properties": {
        "id": 38,
        "title": "Luxury 4-Bedroom + Attic Residence",
        "price": 170000000.0,
        "size_ha": 0.0402,
        "location": "Loresho Crescent Loresho",
        "source": "kenyapropertycentre"
      }
    },
    {
      "type": "Feature",
      "geometry": {
        "type": "Point",
        "coordinates": [
          36.0712048,
          -0.2802724
        ]
      },
      "properties": {
        "id": 39,
        "title": "3-Bedroom Penthouse + DSQ",
        "price": 2000.0,
        "size_ha": 0.1012,
        "location": "General Mathenge Road",
        "source": "kenyapropertycentre"
      }
    },
    {
      "type": "Feature",
      "geometry": {
        "type": "Point",
        "coordinates": [
          36.0712,
          -0.2803
        ]
      },
      "properties": {
        "id": 40,
        "title": "Vacant Land / Plot",
        "price": 78.0,
        "size_ha": 202.35,
        "location": "Nakuru Town",
        "source": "property24"
      }
    },
    {
      "type": "Feature",
      "geometry": {
        "type": "Point",
        "coordinates": [
          36.4388,
          -0.7224
        ]
      },
      "properties": {
        "id": 41,
        "title": "Vacant Land / Plot",
        "price": 3500000.0,
        "size_ha": 240.7965,
        "location": "Naivasha",
        "source": "property24"
      }
    },
    {
      "type": "Feature",
      "geometry": {
        "type": "Point",
        "coordinates": [
          36.4388,
          -0.7224
        ]
      },
      "properties": {
        "id": 42,
        "title": "Vacant Land / Plot",
        "price": 3500000.0,
        "size_ha": 240.7965,
        "location": "Naivasha",
        "source": "property24"
      }
    }
  ]
}